{
  "type": "FeatureCollection",
  "features": [
    {
      "type": "Feature",
      "properties": {
        "norad_id": 58701,
        "name": "TIANMU-1 16",
        "group": "weather",
        "lat": -48.735426443826434,
        "lon": -14.77150748363625,
        "alt_km": 496.8575761372904,
        "timestamp": "2025-12-18T23:35:48.689376+00:00",
        "meta_object_name": "TIANMU-1 16",
        "meta_object_id": "2024-004B",
        "meta_epoch": "2025-12-18T14:43:03.566208",
        "meta_mean_motion": 15.24509662,
        "meta_eccentricity": 0.000432,
        "meta_inclination": 97.4561,
        "meta_ra_of_asc_node": 173.4444,
        "meta_arg_of_pericenter": 269.7192,
        "meta_mean_anomaly": 90.355,
        "meta_ephemeris_type": 0,
        "meta_classification_type": "U",
        "meta_norad_cat_id": 58701,
        "meta_element_set_no": 999,
        "meta_rev_at_epoch": 10824,
        "meta_bstar": 0.00022351202,
        "meta_mean_motion_dot": 5.425e-05,
        "meta_mean_motion_ddot": 0,
        "tle_line1": "1 58701U 24004B   25352.61323572  .00005425  00000+0  22351-3 0  9998",
        "tle_line2": "2 58701  97.4561 173.4444 0004320 269.7192  90.3550 15.24509662108244"
      },
      "geometry": {
        "type": "Point",
        "coordinates": [
          -14.77150748363625,
          -48.735426443826434
        ]
      }
    },
    {
      "type": "Feature",
      "properties": {
        "norad_id": 58702,
        "name": "TIANMU-1 17",
        "group": "weather",
        "lat": -44.855821756510935,
        "lon": -178.28334139950636,
        "alt_km": 497.1713800614343,
        "timestamp": "2025-12-18T23:35:48.689386+00:00",
        "meta_object_name": "TIANMU-1 17",
        "meta_object_id": "2024-004C",
        "meta_epoch": "2025-12-18T14:20:38.111712",
        "meta_mean_motion": 15.24553132,
        "meta_eccentricity": 0.00034936,
        "meta_inclination": 97.4595,
        "meta_ra_of_asc_node": 173.842,
        "meta_arg_of_pericenter": 272.0121,
        "meta_mean_anomaly": 88.0716,
        "meta_ephemeris_type": 0,
        "meta_classification_type": "U",
        "meta_norad_cat_id": 58702,
        "meta_element_set_no": 999,
        "meta_rev_at_epoch": 10823,
        "meta_bstar": 0.0002315616,
        "meta_mean_motion_dot": 5.63e-05,
        "meta_mean_motion_ddot": 0,
        "tle_line1": "1 58702U 24004C   25352.59766333  .00005630  00000+0  23156-3 0  9994",
        "tle_line2": "2 58702  97.4595 173.8420 0003493 272.0121  88.0716 15.24553132108237"
      },
      "geometry": {
        "type": "Point",
        "coordinates": [
          -178.28334139950636,
          -44.855821756510935
        ]
      }
    },
    {
      "type": "Feature",
      "properties": {
        "norad_id": 58703,
        "name": "TIANMU-1 18",
        "group": "weather",
        "lat": 45.37218702678047,
        "lon": 166.79297670804502,
        "alt_km": 489.75148097945566,
        "timestamp": "2025-12-18T23:35:48.689396+00:00",
        "meta_object_name": "TIANMU-1 18",
        "meta_object_id": "2024-004D",
        "meta_epoch": "2025-12-18T15:31:12.077184",
        "meta_mean_motion": 15.24539091,
        "meta_eccentricity": 0.00028629,
        "meta_inclination": 97.4611,
        "meta_ra_of_asc_node": 174.0874,
        "meta_arg_of_pericenter": 269.9453,
        "meta_mean_anomaly": 90.1456,
        "meta_ephemeris_type": 0,
        "meta_classification_type": "U",
        "meta_norad_cat_id": 58703,
        "meta_element_set_no": 999,
        "meta_rev_at_epoch": 10824,
        "meta_bstar": 0.00022470165,
        "meta_mean_motion_dot": 5.458e-05,
        "meta_mean_motion_ddot": 0,
        "tle_line1": "1 58703U 24004D   25352.64666756  .00005458  00000+0  22470-3 0  9995",
        "tle_line2": "2 58703  97.4611 174.0874 0002862 269.9453  90.1456 15.24539091108249"
      },
      "geometry": {
        "type": "Point",
        "coordinates": [
          166.79297670804502,
          45.37218702678047
        ]
      }
    },
    {
      "type": "Feature",
      "properties": {
        "norad_id": 58990,
        "name": "INSAT-3DS",
        "group": "weather",
        "lat": 0.036696571737790694,
        "lon": 163.86815744931226,
        "alt_km": 35787.2801422049,
        "timestamp": "2025-12-18T23:35:48.689408+00:00",
        "meta_object_name": "INSAT-3DS",
        "meta_object_id": "2024-033A",
        "meta_epoch": "2025-12-18T13:41:09.430656",
        "meta_mean_motion": 1.00272406,
        "meta_eccentricity": 0.00010984,
        "meta_inclination": 0.0507,
        "meta_ra_of_asc_node": 110.2933,
        "meta_arg_of_pericenter": 160.6124,
        "meta_mean_anomaly": 103.9142,
        "meta_ephemeris_type": 0,
        "meta_classification_type": "U",
        "meta_norad_cat_id": 58990,
        "meta_element_set_no": 999,
        "meta_rev_at_epoch": 4525,
        "meta_bstar": 0,
        "meta_mean_motion_dot": -1.31e-06,
        "meta_mean_motion_ddot": 0,
        "tle_line1": "1 58990U 24033A   25352.57024804 -.00000131  00000+0  00000+0 0  9994",
        "tle_line2": "2 58990   0.0507 110.2933 0001098 160.6124 103.9142  1.00272406 45250"
      },
      "geometry": {
        "type": "Point",
        "coordinates": [
          163.86815744931226,
          0.036696571737790694
        ]
      }
    },
    {
      "type": "Feature",
      "properties": {
        "norad_id": 59051,
        "name": "METEOR-M2 4",
        "group": "weather",
        "lat": 81.31001128100789,
        "lon": -137.86613760784078,
        "alt_km": 811.3813399647333,
        "timestamp": "2025-12-18T23:35:48.689419+00:00",
        "meta_object_name": "METEOR-M2 4",
        "meta_object_id": "2024-039A",
        "meta_epoch": "2025-12-18T14:44:09.690720",
        "meta_mean_motion": 14.22402193,
        "meta_eccentricity": 0.00067256,
        "meta_inclination": 98.6774,
        "meta_ra_of_asc_node": 309.431,
        "meta_arg_of_pericenter": 341.3249,
        "meta_mean_anomaly": 18.7681,
        "meta_ephemeris_type": 0,
        "meta_classification_type": "U",
        "meta_norad_cat_id": 59051,
        "meta_element_set_no": 999,
        "meta_rev_at_epoch": 9359,
        "meta_bstar": 2.5738346e-05,
        "meta_mean_motion_dot": 1.4e-07,
        "meta_mean_motion_ddot": 0,
        "tle_line1": "1 59051U 24039A   25352.61400105  .00000014  00000+0  25738-4 0  9995",
        "tle_line2": "2 59051  98.6774 309.4310 0006725 341.3249  18.7681 14.22402193 93594"
      },
      "geometry": {
        "type": "Point",
        "coordinates": [
          -137.86613760784078,
          81.31001128100789
        ]
      }
    },
    {
      "type": "Feature",
      "properties": {
        "norad_id": 60133,
        "name": "GOES 19",
        "group": "weather",
        "lat": -5.372874013186211e-05,
        "lon": 6.600315486358456,
        "alt_km": 35783.00760063796,
        "timestamp": "2025-12-18T23:35:48.689430+00:00",
        "meta_object_name": "GOES 19",
        "meta_object_id": "2024-119A",
        "meta_epoch": "2025-12-18T14:38:56.397408",
        "meta_mean_motion": 1.00271525,
        "meta_eccentricity": 0.00010383,
        "meta_inclination": 0.0074,
        "meta_ra_of_asc_node": 96.524,
        "meta_arg_of_pericenter": 227.1623,
        "meta_mean_anomaly": 268.3322,
        "meta_ephemeris_type": 0,
        "meta_classification_type": "U",
        "meta_norad_cat_id": 60133,
        "meta_element_set_no": 999,
        "meta_rev_at_epoch": 515,
        "meta_bstar": 0,
        "meta_mean_motion_dot": -2.23e-06,
        "meta_mean_motion_ddot": 0,
        "tle_line1": "1 60133U 24119A   25352.61037497 -.00000223  00000+0  00000+0 0  9990",
        "tle_line2": "2 60133   0.0074  96.5240 0001038 227.1623 268.3322  1.00271525  5157"
      },
      "geometry": {
        "type": "Point",
        "coordinates": [
          6.600315486358456,
          -5.372874013186211e-05
        ]
      }
    },
    {
      "type": "Feature",
      "properties": {
        "norad_id": 65815,
        "name": "FENGYUN 3H",
        "group": "weather",
        "lat": -81.0027405046564,
        "lon": 6.684492310256543,
        "alt_km": 833.4958929939166,
        "timestamp": "2025-12-18T23:35:48.689443+00:00",
        "meta_object_name": "FENGYUN 3H",
        "meta_object_id": "2025-219A",
        "meta_epoch": "2025-12-18T13:51:41.604768",
        "meta_mean_motion": 14.19906199,
        "meta_eccentricity": 6.964e-05,
        "meta_inclination": 98.6591,
        "meta_ra_of_asc_node": 292.0413,
        "meta_arg_of_pericenter": 102.9394,
        "meta_mean_anomaly": 257.186,
        "meta_ephemeris_type": 0,
        "meta_classification_type": "U",
        "meta_norad_cat_id": 65815,
        "meta_element_set_no": 999,
        "meta_rev_at_epoch": 1175,
        "meta_bstar": 4.1354661e-05,
        "meta_mean_motion_dot": 4.5e-07,
        "meta_mean_motion_ddot": 0,
        "tle_line1": "1 65815U 25219A   25352.57756487  .00000045  00000+0  41355-4 0  9990",
        "tle_line2": "2 65815  98.6591 292.0413 0000696 102.9394 257.1860 14.19906199 11757"
      },
      "geometry": {
        "type": "Point",
        "coordinates": [
          6.684492310256543,
          -81.0027405046564
        ]
      }
    }
  ]
}